{
    "links": {
        "self": "http://www.neowsapp.com/rest/v1/neo/3728230?api_key=iIulBulltgU6a56xZRHN4H3l9WmuAYTsLGpBGhQ2"
    },
    "id": "3728230",
    "neo_reference_id": "3728230",
    "name": "(2015 SF)",
    "designation": "2015 SF",
    "nasa_jpl_url": "http://ssd.jpl.nasa.gov/sbdb.cgi?sstr=3728230",
    "absolute_magnitude_h": 22.9,
    "estimated_diameter": {
        "kilometers": {
            "estimated_diameter_min": 0.0699125232,
            "estimated_diameter_max": 0.1563291544
        },
        "meters": {
            "estimated_diameter_min": 69.9125232246,
            "estimated_diameter_max": 156.3291544087
        },
        "miles": {
            "estimated_diameter_min": 0.0434416145,
            "estimated_diameter_max": 0.097138403
        },
        "feet": {
            "estimated_diameter_min": 229.3718026961,
            "estimated_diameter_max": 512.8909429502
        }
    },
    "is_potentially_hazardous_asteroid": false,
    "close_approach_data": [
        {
            "close_approach_date": "2015-08-16",
            "close_approach_date_full": "2015-Aug-16 19:18",
            "epoch_date_close_approach": 1439752680000,
            "relative_velocity": {
                "kilometers_per_second": "25.0198088256",
                "kilometers_per_hour": "90071.311772124",
                "miles_per_hour": "55966.8103619623"
            },
            "miss_distance": {
                "astronomical": "0.1352617847",
                "lunar": "52.6168342483",
                "kilometers": "20234874.883518589",
                "miles": "12573368.2177869682"
            },
            "orbiting_body": "Venus"
        },
        {
            "close_approach_date": "2015-09-06",
            "close_approach_date_full": "2015-Sep-06 08:54",
            "epoch_date_close_approach": 1441529640000,
            "relative_velocity": {
                "kilometers_per_second": "22.755779374",
                "kilometers_per_hour": "81920.8057463798",
                "miles_per_hour": "50902.4028816881"
            },
            "miss_distance": {
                "astronomical": "0.0767375144",
                "lunar": "29.8508931016",
                "kilometers": "11479768.703334328",
                "miles": "7133197.5014886064"
            },
            "orbiting_body": "Earth"
        }
    ],
    "orbital_data": {
        "orbit_id": "8",
        "orbit_determination_date": "2017-04-06 08:31:51",
        "first_observation_date": "2015-09-17",
        "last_observation_date": "2015-10-02",
        "data_arc_in_days": 15,
        "observations_used": 82,
        "orbit_uncertainty": "8",
        "minimum_orbit_intersection": ".0572627",
        "jupiter_tisserand_invariant": "2.918",
        "epoch_osculation": "2457287.5",
        "eccentricity": ".7820489502599323",
        "semi_major_axis": "2.528269327872733",
        "inclination": "8.397446083875034",
        "ascending_node_longitude": "188.4067144354407",
        "orbital_period": "1468.36299417143",
        "perihelion_distance": ".5510389540354778",
        "perihelion_argument": "65.02189849078829",
        "aphelion_distance": "4.505499701709988",
        "perihelion_time": "2457225.974812569121",
        "mean_anomaly": "15.08419073691976",
        "mean_motion": ".2451709838977122",
        "equinox": "J2000",
        "orbit_class": {
            "orbit_class_type": "APO",
            "orbit_class_description": "Near-Earth asteroid orbits which cross the Earth’s orbit similar to that of 1862 Apollo",
            "orbit_class_range": "a (semi-major axis) > 1.0 AU; q (perihelion) < 1.017 AU"
        }
    },
    "is_sentry_object": false
}